start=new Date('2022-09-19T00:00:00.000Z').valueOf();
sats=[{"MEAN_ELEMENT_THEORY":"SGP4","TLE_LINE1":"1 47639U 21012V   22261.64921711  .00001351  00000-0  10954-3 0  9991","EPHEMERIS_TYPE":"0","ARG_OF_PERICENTER":"79.2730","DECAY_DATE":null,"PERIAPSIS":"546.200","MEAN_ANOMALY":"280.8422","RCS_SIZE":"LARGE","OBJECT_TYPE":"PAYLOAD","TLE_LINE2":"2 47639  53.0564 344.0842 0001451  79.2730 280.8422 15.06402800 89120","LAUNCH_DATE":"2021-02-16","MEAN_MOTION_DOT":"0.00001351","NORAD_CAT_ID":"47639","ECCENTRICITY":"0.00014510","RA_OF_ASC_NODE":"344.0842","SITE":"AFETR","OBJECT_ID":"2021-012V","EPOCH":"2022-09-18T15:34:52.358304","FILE":"3577422","SEMIMAJOR_AXIS":"6925.340","COUNTRY_CODE":"US","REF_FRAME":"TEME","REV_AT_EPOCH":"8912","GP_ID":"212964950","INCLINATION":"53.0564","MEAN_MOTION":"15.06402800","CLASSIFICATION_TYPE":"U","MEAN_MOTION_DDOT":"0.0000000000000","CENTER_NAME":"EARTH","BSTAR":"0.00010954000000","OBJECT_NAME":"STARLINK-2016","ELEMENT_SET_NO":"999","APOAPSIS":"548.210","PERIOD":"95.592","TIME_SYSTEM":"UTC"},{"NORAD_CAT_ID":"47640","MEAN_MOTION_DOT":"0.00000752","OBJECT_TYPE":"PAYLOAD","LAUNCH_DATE":"2021-02-16","TLE_LINE2":"2 47640  53.0565   4.3934 0001379  74.9069 285.2072 15.06386570 88851","MEAN_ANOMALY":"285.2072","RCS_SIZE":"LARGE","ARG_OF_PERICENTER":"74.9069","PERIAPSIS":"546.300","DECAY_DATE":null,"EPHEMERIS_TYPE":"0","TLE_LINE1":"1 47640U 21012W   22261.57734712  .00000752  00000-0  69418-4 0  9992","MEAN_ELEMENT_THEORY":"SGP4","OBJECT_NAME":"STARLINK-2018","TIME_SYSTEM":"UTC","APOAPSIS":"548.210","PERIOD":"95.593","ELEMENT_SET_NO":"999","MEAN_MOTION_DDOT":"0.0000000000000","BSTAR":"0.00006941800000","CENTER_NAME":"EARTH","CLASSIFICATION_TYPE":"U","MEAN_MOTION":"15.06386570","REV_AT_EPOCH":"8885","REF_FRAME":"TEME","INCLINATION":"53.0565","GP_ID":"212965203","SEMIMAJOR_AXIS":"6925.390","FILE":"3577422","COUNTRY_CODE":"US","EPOCH":"2022-09-18T13:51:22.791168","SITE":"AFETR","RA_OF_ASC_NODE":"4.3934","OBJECT_ID":"2021-012W","ECCENTRICITY":"0.00013790"},{"OBJECT_NAME":"STARLINK-2019","APOAPSIS":"548.124","TIME_SYSTEM":"UTC","PERIOD":"95.592","ELEMENT_SET_NO":"999","MEAN_MOTION_DDOT":"0.0000000000000","BSTAR":"0.00008325900000","CENTER_NAME":"EARTH","MEAN_MOTION":"15.06399643","CLASSIFICATION_TYPE":"U","REV_AT_EPOCH":"9018","REF_FRAME":"TEME","INCLINATION":"53.0529","GP_ID":"212963956","SEMIMAJOR_AXIS":"6925.350","FILE":"3577422","COUNTRY_CODE":"US","EPOCH":"2022-09-18T17:17:42.388800","SITE":"AFETR","OBJECT_ID":"2021-012X","RA_OF_ASC_NODE":"268.7632","ECCENTRICITY":"0.00013130","NORAD_CAT_ID":"47641","MEAN_MOTION_DOT":"0.00000959","OBJECT_TYPE":"PAYLOAD","LAUNCH_DATE":"2021-02-16","TLE_LINE2":"2 47641  53.0529 268.7632 0001313  74.6868 285.4266 15.06399643 90186","MEAN_ANOMALY":"285.4266","RCS_SIZE":"LARGE","ARG_OF_PERICENTER":"74.6868","PERIAPSIS":"546.305","DECAY_DATE":null,"EPHEMERIS_TYPE":"0","TLE_LINE1":"1 47641U 21012X   22261.72062950  .00000959  00000-0  83259-4 0  9996","MEAN_ELEMENT_THEORY":"SGP4"},{"SEMIMAJOR_AXIS":"6925.364","FILE":"3577422","COUNTRY_CODE":"US","EPOCH":"2022-09-18T15:35:32.675136","RA_OF_ASC_NODE":"359.0585","SITE":"AFETR","OBJECT_ID":"2021-012Y","ECCENTRICITY":"0.00016180","OBJECT_NAME":"STARLINK-2020","ELEMENT_SET_NO":"999","APOAPSIS":"548.350","PERIOD":"95.592","TIME_SYSTEM":"UTC","MEAN_MOTION_DDOT":"0.0000000000000","BSTAR":"0.00018384000000","CENTER_NAME":"EARTH","CLASSIFICATION_TYPE":"U","MEAN_MOTION":"15.06394943","REV_AT_EPOCH":"8892","REF_FRAME":"TEME","INCLINATION":"53.0566","GP_ID":"212963706","ARG_OF_PERICENTER":"69.8544","PERIAPSIS":"546.109","DECAY_DATE":null,"EPHEMERIS_TYPE":"0","TLE_LINE1":"1 47642U 21012Y   22261.64968374  .00002457  00000-0  18384-3 0  9994","MEAN_ELEMENT_THEORY":"SGP4","NORAD_CAT_ID":"47642","MEAN_MOTION_DOT":"0.00002457","OBJECT_TYPE":"PAYLOAD","LAUNCH_DATE":"2021-02-16","TLE_LINE2":"2 47642  53.0566 359.0585 0001618  69.8544 290.2619 15.06394943 88927","MEAN_ANOMALY":"290.2619","RCS_SIZE":"LARGE"},{"OBJECT_TYPE":"PAYLOAD","TLE_LINE2":"2 47643  53.0546 344.6158 0001429  79.3125 280.8025 15.06406637 88608","LAUNCH_DATE":"2021-02-16","MEAN_ANOMALY":"280.8025","RCS_SIZE":"LARGE","NORAD_CAT_ID":"47643","MEAN_MOTION_DOT":"0.00001847","TLE_LINE1":"1 47643U 21012Z   22261.53126533  .00001847  00000-0  14283-3 0  9992","MEAN_ELEMENT_THEORY":"SGP4","ARG_OF_PERICENTER":"79.3125","DECAY_DATE":null,"PERIAPSIS":"546.204","EPHEMERIS_TYPE":"0","CLASSIFICATION_TYPE":"U","MEAN_MOTION":"15.06406637","REF_FRAME":"TEME","REV_AT_EPOCH":"8860","GP_ID":"212938370","INCLINATION":"53.0546","OBJECT_NAME":"STARLINK-2022","PERIOD":"95.592","APOAPSIS":"548.183","ELEMENT_SET_NO":"999","TIME_SYSTEM":"UTC","MEAN_MOTION_DDOT":"0.0000000000000","CENTER_NAME":"EARTH","BSTAR":"0.00014283000000","SITE":"AFETR","OBJECT_ID":"2021-012Z","RA_OF_ASC_NODE":"344.6158","ECCENTRICITY":"0.00014290","FILE":"3577257","SEMIMAJOR_AXIS":"6925.328","COUNTRY_CODE":"US","EPOCH":"2022-09-18T12:45:01.324512"},{"MEAN_MOTION_DOT":"0.00001428","NORAD_CAT_ID":"47644","MEAN_ANOMALY":"298.9587","RCS_SIZE":"LARGE","OBJECT_TYPE":"PAYLOAD","LAUNCH_DATE":"2021-02-16","TLE_LINE2":"2 47644  53.0574   4.2576 0001291  61.1531 298.9587 15.06387255 88865","EPHEMERIS_TYPE":"0","ARG_OF_PERICENTER":"61.1531","PERIAPSIS":"546.359","DECAY_DATE":null,"MEAN_ELEMENT_THEORY":"SGP4","TLE_LINE1":"1 47644U 21012AA  22261.61052371  .00001428  00000-0  11477-3 0  9997","MEAN_MOTION_DDOT":"0.0000000000000","BSTAR":"0.00011477000000","CENTER_NAME":"EARTH","OBJECT_NAME":"STARLINK-2026","PERIOD":"95.593","APOAPSIS":"548.147","ELEMENT_SET_NO":"999","TIME_SYSTEM":"UTC","REV_AT_EPOCH":"8886","REF_FRAME":"TEME","INCLINATION":"53.0574","GP_ID":"212964704","MEAN_MOTION":"15.06387255","CLASSIFICATION_TYPE":"U","EPOCH":"2022-09-18T14:39:09.248544","SEMIMAJOR_AXIS":"6925.388","FILE":"3577422","COUNTRY_CODE":"US","ECCENTRICITY":"0.00012910","OBJECT_ID":"2021-012AA","SITE":"AFETR","RA_OF_ASC_NODE":"4.2576"},{"MEAN_MOTION":"15.06392574","CLASSIFICATION_TYPE":"U","INCLINATION":"53.0568","GP_ID":"212907656","REV_AT_EPOCH":"8922","REF_FRAME":"TEME","APOAPSIS":"548.080","PERIOD":"95.593","ELEMENT_SET_NO":"999","TIME_SYSTEM":"UTC","OBJECT_NAME":"STARLINK-2027","BSTAR":"0.00009254000000","CENTER_NAME":"EARTH","MEAN_MOTION_DDOT":"0.0000000000000","SITE":"AFETR","OBJECT_ID":"2021-012AB","RA_OF_ASC_NODE":"335.2922","ECCENTRICITY":"0.00012180","COUNTRY_CODE":"US","SEMIMAJOR_AXIS":"6925.371","FILE":"3577171","EPOCH":"2022-09-18T10:23:05.274816","LAUNCH_DATE":"2021-02-16","TLE_LINE2":"2 47645  53.0568 335.2922 0001218  75.8526 284.2598 15.06392574 89227","OBJECT_TYPE":"PAYLOAD","RCS_SIZE":"LARGE","MEAN_ANOMALY":"284.2598","NORAD_CAT_ID":"47645","MEAN_MOTION_DOT":"0.00001097","TLE_LINE1":"1 47645U 21012AB  22261.43269994  .00001097  00000-0  92540-4 0  9992","MEAN_ELEMENT_THEORY":"SGP4","PERIAPSIS":"546.393","DECAY_DATE":null,"ARG_OF_PERICENTER":"75.8526","EPHEMERIS_TYPE":"0"},{"APOAPSIS":"548.083","TIME_SYSTEM":"UTC","PERIOD":"95.593","ELEMENT_SET_NO":"999","OBJECT_NAME":"STARLINK-2028","CENTER_NAME":"EARTH","BSTAR":"0.00005916800000","MEAN_MOTION_DDOT":"0.0000000000000","MEAN_MOTION":"15.06390491","CLASSIFICATION_TYPE":"U","GP_ID":"212907899","INCLINATION":"53.0538","REF_FRAME":"TEME","REV_AT_EPOCH":"8972","COUNTRY_CODE":"US","FILE":"3577171","SEMIMAJOR_AXIS":"6925.378","EPOCH":"2022-09-18T11:39:23.858784","SITE":"AFETR","RA_OF_ASC_NODE":"300.0586","OBJECT_ID":"2021-012AC","ECCENTRICITY":"0.00012130","NORAD_CAT_ID":"47646","MEAN_MOTION_DOT":"0.00000600","TLE_LINE2":"2 47646  53.0538 300.0586 0001213  73.9998 286.1124 15.06390491 89725","LAUNCH_DATE":"2021-02-16","OBJECT_TYPE":"PAYLOAD","RCS_SIZE":"LARGE","MEAN_ANOMALY":"286.1124","DECAY_DATE":null,"PERIAPSIS":"546.403","ARG_OF_PERICENTER":"73.9998","EPHEMERIS_TYPE":"0","TLE_LINE1":"1 47646U 21012AC  22261.48569281  .00000600  00000-0  59168-4 0  9998","MEAN_ELEMENT_THEORY":"SGP4"},{"EPOCH":"2022-09-18T13:19:32.262528","SEMIMAJOR_AXIS":"6925.362","FILE":"3577171","COUNTRY_CODE":"US","ECCENTRICITY":"0.00013610","SITE":"AFETR","RA_OF_ASC_NODE":"4.5039","OBJECT_ID":"2021-012AD","MEAN_MOTION_DDOT":"0.0000000000000","BSTAR":"0.00001028700000","CENTER_NAME":"EARTH","OBJECT_NAME":"STARLINK-2030","APOAPSIS":"548.170","TIME_SYSTEM":"UTC","PERIOD":"95.592","ELEMENT_SET_NO":"999","REV_AT_EPOCH":"8885","REF_FRAME":"TEME","INCLINATION":"53.0564","GP_ID":"212906157","MEAN_MOTION":"15.06395573","CLASSIFICATION_TYPE":"U","EPHEMERIS_TYPE":"0","ARG_OF_PERICENTER":"71.2224","PERIAPSIS":"546.285","DECAY_DATE":null,"MEAN_ELEMENT_THEORY":"SGP4","TLE_LINE1":"1 47647U 21012AD  22261.55523452 -.00000128  00000-0  10287-4 0  9992","MEAN_MOTION_DOT":"-0.00000128","NORAD_CAT_ID":"47647","MEAN_ANOMALY":"288.8913","RCS_SIZE":"LARGE","OBJECT_TYPE":"PAYLOAD","LAUNCH_DATE":"2021-02-16","TLE_LINE2":"2 47647  53.0564   4.5039 0001361  71.2224 288.8913 15.06395573 88855"},{"TLE_LINE1":"1 47648U 21012AE  22261.54602465  .00000576  00000-0  57606-4 0  9996","MEAN_ELEMENT_THEORY":"SGP4","ARG_OF_PERICENTER":"67.7649","PERIAPSIS":"546.247","DECAY_DATE":null,"EPHEMERIS_TYPE":"0","OBJECT_TYPE":"PAYLOAD","LAUNCH_DATE":"2021-02-16","TLE_LINE2":"2 47648  53.0558 344.5447 0001436  67.7649 292.3493 15.06390954 89136","MEAN_ANOMALY":"292.3493","RCS_SIZE":"MEDIUM","NORAD_CAT_ID":"47648","MEAN_MOTION_DOT":"0.00000576","RA_OF_ASC_NODE":"344.5447","SITE":"AFETR","OBJECT_ID":"2021-012AE","ECCENTRICITY":"0.00014360","SEMIMAJOR_AXIS":"6925.376","FILE":"3577171","COUNTRY_CODE":"US","EPOCH":"2022-09-18T13:06:16.529760","MEAN_MOTION":"15.06390954","CLASSIFICATION_TYPE":"U","REV_AT_EPOCH":"8913","REF_FRAME":"TEME","INCLINATION":"53.0558","GP_ID":"212906905","OBJECT_NAME":"STARLINK-2031","ELEMENT_SET_NO":"999","APOAPSIS":"548.236","PERIOD":"95.593","TIME_SYSTEM":"UTC","MEAN_MOTION_DDOT":"0.0000000000000","BSTAR":"0.00005760600000","CENTER_NAME":"EARTH"}];
